{
    "links": {
        "self": "http://www.neowsapp.com/rest/v1/neo/3605792?api_key=iIulBulltgU6a56xZRHN4H3l9WmuAYTsLGpBGhQ2"
    },
    "id": "3605792",
    "neo_reference_id": "3605792",
    "name": "(2012 LD13)",
    "designation": "2012 LD13",
    "nasa_jpl_url": "http://ssd.jpl.nasa.gov/sbdb.cgi?sstr=3605792",
    "absolute_magnitude_h": 22.0,
    "estimated_diameter": {
        "kilometers": {
            "estimated_diameter_min": 0.1058168859,
            "estimated_diameter_max": 0.2366137501
        },
        "meters": {
            "estimated_diameter_min": 105.8168859331,
            "estimated_diameter_max": 236.6137501138
        },
        "miles": {
            "estimated_diameter_min": 0.0657515442,
            "estimated_diameter_max": 0.1470249225
        },
        "feet": {
            "estimated_diameter_min": 347.1682720448,
            "estimated_diameter_max": 776.2918559233
        }
    },
    "is_potentially_hazardous_asteroid": false,
    "close_approach_data": [
        {
            "close_approach_date": "2010-05-02",
            "close_approach_date_full": "2010-May-02 23:23",
            "epoch_date_close_approach": 1272842580000,
            "relative_velocity": {
                "kilometers_per_second": "6.0863081939",
                "kilometers_per_hour": "21910.7094979473",
                "miles_per_hour": "13614.4627988773"
            },
            "miss_distance": {
                "astronomical": "0.8066992846",
                "lunar": "313.8060217094",
                "kilometers": "120680494.706683802",
                "miles": "74987382.1996163876"
            },
            "orbiting_body": "Juptr"
        },
        {
            "close_approach_date": "2012-04-12",
            "close_approach_date_full": "2012-Apr-12 21:08",
            "epoch_date_close_approach": 1334264880000,
            "relative_velocity": {
                "kilometers_per_second": "12.4669613964",
                "kilometers_per_hour": "44881.0610271242",
                "miles_per_hour": "27887.3459476595"
            },
            "miss_distance": {
                "astronomical": "0.0414095654",
                "lunar": "16.1083209406",
                "kilometers": "6194782.781465698",
                "miles": "3849259.5278667124"
            },
            "orbiting_body": "Venus"
        },
        {
            "close_approach_date": "2012-05-26",
            "close_approach_date_full": "2012-May-26 04:17",
            "epoch_date_close_approach": 1338005820000,
            "relative_velocity": {
                "kilometers_per_second": "20.4724450047",
                "kilometers_per_hour": "73700.8020169045",
                "miles_per_hour": "45794.8122310038"
            },
            "miss_distance": {
                "astronomical": "0.0976232571",
                "lunar": "37.9754470119",
                "kilometers": "14604231.324622377",
                "miles": "9074648.5480757226"
            },
            "orbiting_body": "Earth"
        },
        {
            "close_approach_date": "2081-07-19",
            "close_approach_date_full": "2081-Jul-19 13:23",
            "epoch_date_close_approach": 3520156980000,
            "relative_velocity": {
                "kilometers_per_second": "6.0231171641",
                "kilometers_per_hour": "21683.2217906734",
                "miles_per_hour": "13473.1107843215"
            },
            "miss_distance": {
                "astronomical": "0.7976722955",
                "lunar": "310.2945229495",
                "kilometers": "119330076.364810585",
                "miles": "74148271.152072673"
            },
            "orbiting_body": "Juptr"
        }
    ],
    "orbital_data": {
        "orbit_id": "11",
        "orbit_determination_date": "2017-04-06 08:49:33",
        "first_observation_date": "2012-06-15",
        "last_observation_date": "2012-06-28",
        "data_arc_in_days": 13,
        "observations_used": 46,
        "orbit_uncertainty": "8",
        "minimum_orbit_intersection": ".0695839",
        "jupiter_tisserand_invariant": "3.092",
        "epoch_osculation": "2456097.5",
        "eccentricity": ".7183242469390405",
        "semi_major_axis": "2.424688323184456",
        "inclination": "4.873358928178652",
        "ascending_node_longitude": "147.2796339722104",
        "orbital_period": "1379.057289894834",
        "perihelion_distance": ".6829759093710969",
        "perihelion_argument": "17.76409984663932",
        "aphelion_distance": "4.166400736997816",
        "perihelion_time": "2456028.471644963519",
        "mean_anomaly": "18.0197066468705",
        "mean_motion": ".2610478931063504",
        "equinox": "J2000",
        "orbit_class": {
            "orbit_class_type": "APO",
            "orbit_class_description": "Near-Earth asteroid orbits which cross the Earth’s orbit similar to that of 1862 Apollo",
            "orbit_class_range": "a (semi-major axis) > 1.0 AU; q (perihelion) < 1.017 AU"
        }
    },
    "is_sentry_object": false
}